0 SIRIUS 2 (GE-1E)
1 25049U 97071A   13283.33415106 -.00000164  00000-0  10000-3 0  4490
2 25049 004.1490 065.1723 0004457 056.9785 303.1881 00.99402941 58155
0 SIRIUS 2 (GE-1E)
1 25049U 97071A   13285.34612554 -.00000136  00000-0  10000-3 0  4500
2 25049 004.1531 065.1521 0004410 057.6691 302.5119 00.99402334 58175
0 SIRIUS 2 (GE-1E)
1 25049U 97071A   13287.35810205 -.00000102  00000-0  10000-3 0  4510
2 25049 004.1574 065.1316 0004378 057.7491 302.4402 00.99401807 58196
0 SIRIUS 2 (GE-1E)
1 25049U 97071A   13289.37000631 -.00000065  00000-0  10000-3 0  4527
2 25049 004.1615 065.1122 0004399 057.6509 302.5201 00.99401438 58210
0 SIRIUS 2 (GE-1E)
1 25049U 97071A   13290.37593700  .00000000  00000-0  10000-3 0  4532
2 25049 004.1631 065.1021 0003688 061.5839 298.5650 00.99397698 58221
0 SIRIUS 2 (GE-1E)
1 25049U 97071A   13292.38771834 -.00000010  00000-0  10000-3 0  4533
2 25049 004.1677 065.0829 0004374 059.1238 300.9642 00.99401163 58249
0 SIRIUS 2 (GE-1E)
1 25049U 97071A   13295.40550177  .00000039  00000-0  10000-3 0  4545
2 25049 004.1739 065.0541 0004154 061.2080 298.8202 00.99401245 58275
